[{"OBJECT_NAME":"STARLINK-34668","OBJECT_ID":"2025-150AA","EPOCH":"2026-03-09T12:29:16.699488","MEAN_MOTION":14.98347824,"ECCENTRICITY":0.000305,"INCLINATION":70.0026,"RA_OF_ASC_NODE":134.7911,"ARG_OF_PERICENTER":263.5528,"MEAN_ANOMALY":96.5283,"EPHEMERIS_TYPE":0,"CLASSIFICATION_TYPE":"U","NORAD_CAT_ID":64814,"ELEMENT_SET_NO":999,"REV_AT_EPOCH":3649,"BSTAR":0.00040691444,"MEAN_MOTION_DOT":4.768e-5,"MEAN_MOTION_DDOT":0},{"OBJECT_NAME":"COSMOS 397 DEB","OBJECT_ID":"1971-015AT","EPOCH":"2026-03-09T19:56:58.776576","MEAN_MOTION":13.47529832,"ECCENTRICITY":0.06936253,"INCLINATION":65.535,"RA_OF_ASC_NODE":288.7832,"ARG_OF_PERICENTER":42.307,"MEAN_ANOMALY":322.9384,"EPHEMERIS_TYPE":0,"CLASSIFICATION_TYPE":"U","NORAD_CAT_ID":5197,"ELEMENT_SET_NO":999,"REV_AT_EPOCH":62041,"BSTAR":0.0012341433,"MEAN_MOTION_DOT":3.357e-5,"MEAN_MOTION_DDOT":0}]
